{
  "type": "FeatureCollection",
  "features": [
    {
      "type": "Feature",
      "properties": {
        "norad_id": 22490,
        "name": "SCD 1",
        "group": "resource",
        "lat": -20.147586622768287,
        "lon": 170.83292761557993,
        "alt_km": 722.164055273719,
        "timestamp": "2025-12-09T11:33:54.456619+00:00",
        "meta_object_name": "SCD 1",
        "meta_object_id": "1993-009B",
        "meta_epoch": "2025-12-09T04:23:05.109792",
        "meta_mean_motion": 14.45994752,
        "meta_eccentricity": 0.0041724,
        "meta_inclination": 24.9704,
        "meta_ra_of_asc_node": 300.645,
        "meta_arg_of_pericenter": 287.2094,
        "meta_mean_anomaly": 187.2931,
        "meta_ephemeris_type": 0,
        "meta_classification_type": "U",
        "meta_norad_cat_id": 22490,
        "meta_element_set_no": 999,
        "meta_rev_at_epoch": 73358,
        "meta_bstar": 0.00014848,
        "meta_mean_motion_dot": 7.29e-06,
        "meta_mean_motion_ddot": 0,
        "tle_line1": "1 22490U 93009B   25343.18269803  .00000729  00000+0  14848-3 0  9997",
        "tle_line2": "2 22490  24.9704 300.6450 0041724 287.2094 187.2931 14.45994752733580"
      },
      "geometry": {
        "type": "Point",
        "coordinates": [
          170.83292761557993,
          -20.147586622768287
        ]
      }
    },
    {
      "type": "Feature",
      "properties": {
        "norad_id": 25397,
        "name": "TECHSAT 1B (GO-32)",
        "group": "resource",
        "lat": 32.40229019683642,
        "lon": -39.148708313730396,
        "alt_km": 807.2671294518277,
        "timestamp": "2025-12-09T11:33:54.456658+00:00",
        "meta_object_name": "TECHSAT 1B (GO-32)",
        "meta_object_id": "1998-043D",
        "meta_epoch": "2025-12-08T21:55:27.338304",
        "meta_mean_motion": 14.24375251,
        "meta_eccentricity": 0.0002145,
        "meta_inclination": 98.9915,
        "meta_ra_of_asc_node": 326.0373,
        "meta_arg_of_pericenter": 63.4685,
        "meta_mean_anomaly": 296.6713,
        "meta_ephemeris_type": 0,
        "meta_classification_type": "U",
        "meta_norad_cat_id": 25397,
        "meta_element_set_no": 999,
        "meta_rev_at_epoch": 42424,
        "meta_bstar": 8.5481e-05,
        "meta_mean_motion_dot": 1.51e-06,
        "meta_mean_motion_ddot": 0,
        "tle_line1": "1 25397U 98043D   25342.91351086  .00000151  00000+0  85481-4 0  9995",
        "tle_line2": "2 25397  98.9915 326.0373 0002145  63.4685 296.6713 14.24375251424241"
      },
      "geometry": {
        "type": "Point",
        "coordinates": [
          -39.148708313730396,
          32.40229019683642
        ]
      }
    },
    {
      "type": "Feature",
      "properties": {
        "norad_id": 25504,
        "name": "SCD 2",
        "group": "resource",
        "lat": -24.916056483473977,
        "lon": 76.32196237787026,
        "alt_km": 729.5002412969297,
        "timestamp": "2025-12-09T11:33:54.456683+00:00",
        "meta_object_name": "SCD 2",
        "meta_object_id": "1998-060A",
        "meta_epoch": "2025-12-08T21:41:28.157568",
        "meta_mean_motion": 14.45419789,
        "meta_eccentricity": 0.0016589,
        "meta_inclination": 24.9931,
        "meta_ra_of_asc_node": 165.5501,
        "meta_arg_of_pericenter": 272.5598,
        "meta_mean_anomaly": 227.2256,
        "meta_ephemeris_type": 0,
        "meta_classification_type": "U",
        "meta_norad_cat_id": 25504,
        "meta_element_set_no": 999,
        "meta_rev_at_epoch": 43276,
        "meta_bstar": 0.00010877,
        "meta_mean_motion_dot": 5.72e-06,
        "meta_mean_motion_ddot": 0,
        "tle_line1": "1 25504U 98060A   25342.90379812  .00000572  00000+0  10877-3 0  9993",
        "tle_line2": "2 25504  24.9931 165.5501 0016589 272.5598 227.2256 14.45419789432766"
      },
      "geometry": {
        "type": "Point",
        "coordinates": [
          76.32196237787026,
          -24.916056483473977
        ]
      }
    },
    {
      "type": "Feature",
      "properties": {
        "norad_id": 25757,
        "name": "DLR-TUBSAT",
        "group": "resource",
        "lat": -73.77977755420702,
        "lon": -0.5273357564876257,
        "alt_km": 723.6917368010536,
        "timestamp": "2025-12-09T11:33:54.456696+00:00",
        "meta_object_name": "DLR-TUBSAT",
        "meta_object_id": "1999-029B",
        "meta_epoch": "2025-12-09T05:18:08.236224",
        "meta_mean_motion": 14.52355381,
        "meta_eccentricity": 0.00137,
        "meta_inclination": 98.656,
        "meta_ra_of_asc_node": 327.6261,
        "meta_arg_of_pericenter": 203.7718,
        "meta_mean_anomaly": 156.2845,
        "meta_ephemeris_type": 0,
        "meta_classification_type": "U",
        "meta_norad_cat_id": 25757,
        "meta_element_set_no": 999,
        "meta_rev_at_epoch": 40567,
        "meta_bstar": 6.8755e-05,
        "meta_mean_motion_dot": 2.32e-06,
        "meta_mean_motion_ddot": 0,
        "tle_line1": "1 25757U 99029B   25343.22092866  .00000232  00000+0  68755-4 0  9998",
        "tle_line2": "2 25757  98.6560 327.6261 0013700 203.7718 156.2845 14.52355381405678"
      },
      "geometry": {
        "type": "Point",
        "coordinates": [
          -0.5273357564876257,
          -73.77977755420702
        ]
      }
    },
    {
      "type": "Feature",
      "properties": {
        "norad_id": 25994,
        "name": "TERRA",
        "group": "resource",
        "lat": -65.88754837330208,
        "lon": -162.96765634938788,
        "alt_km": 699.3565874411133,
        "timestamp": "2025-12-09T11:33:54.456708+00:00",
        "meta_object_name": "TERRA",
        "meta_object_id": "1999-068A",
        "meta_epoch": "2025-12-08T21:49:22.179072",
        "meta_mean_motion": 14.60945359,
        "meta_eccentricity": 0.0003528,
        "meta_inclination": 97.9753,
        "meta_ra_of_asc_node": 34.7344,
        "meta_arg_of_pericenter": 105.487,
        "meta_mean_anomaly": 11.8952,
        "meta_ephemeris_type": 0,
        "meta_classification_type": "U",
        "meta_norad_cat_id": 25994,
        "meta_element_set_no": 999,
        "meta_rev_at_epoch": 38182,
        "meta_bstar": 0.00017004,
        "meta_mean_motion_dot": 7.88e-06,
        "meta_mean_motion_ddot": 0,
        "tle_line1": "1 25994U 99068A   25342.90928448  .00000788  00000+0  17004-3 0  9998",
        "tle_line2": "2 25994  97.9753  34.7344 0003528 105.4870  11.8952 14.60945359381823"
      },
      "geometry": {
        "type": "Point",
        "coordinates": [
          -162.96765634938788,
          -65.88754837330208
        ]
      }
    },
    {
      "type": "Feature",
      "properties": {
        "norad_id": 27004,
        "name": "MAROC-TUBSAT",
        "group": "resource",
        "lat": -36.2867109893192,
        "lon": -35.41403627948109,
        "alt_km": 996.1791436816557,
        "timestamp": "2025-12-09T11:33:54.456721+00:00",
        "meta_object_name": "MAROC-TUBSAT",
        "meta_object_id": "2001-056D",
        "meta_epoch": "2025-12-09T02:18:39.246048",
        "meta_mean_motion": 13.70252601,
        "meta_eccentricity": 0.0019087,
        "meta_inclination": 99.7912,
        "meta_ra_of_asc_node": 151.4775,
        "meta_arg_of_pericenter": 269.8367,
        "meta_mean_anomaly": 206.0439,
        "meta_ephemeris_type": 0,
        "meta_classification_type": "U",
        "meta_norad_cat_id": 27004,
        "meta_element_set_no": 999,
        "meta_rev_at_epoch": 20015,
        "meta_bstar": 3.9169e-05,
        "meta_mean_motion_dot": -1.2e-07,
        "meta_mean_motion_ddot": 0,
        "tle_line1": "1 27004U 01056D   25343.09628757 -.00000012  00000+0  39169-4 0  9991",
        "tle_line2": "2 27004  99.7912 151.4775 0019087 269.8367 206.0439 13.70252601200157"
      },
      "geometry": {
        "type": "Point",
        "coordinates": [
          -35.41403627948109,
          -36.2867109893192
        ]
      }
    },
    {
      "type": "Feature",
      "properties": {
        "norad_id": 27424,
        "name": "AQUA",
        "group": "resource",
        "lat": 67.10464390865782,
        "lon": 144.79706135726585,
        "alt_km": 680.1561926780842,
        "timestamp": "2025-12-09T11:33:54.456739+00:00",
        "meta_object_name": "AQUA",
        "meta_object_id": "2002-022A",
        "meta_epoch": "2025-12-09T04:44:47.358240",
        "meta_mean_motion": 14.61794992,
        "meta_eccentricity": 9.53e-05,
        "meta_inclination": 98.4033,
        "meta_ra_of_asc_node": 304.0194,
        "meta_arg_of_pericenter": 114.0771,
        "meta_mean_anomaly": 303.0219,
        "meta_ephemeris_type": 0,
        "meta_classification_type": "U",
        "meta_norad_cat_id": 27424,
        "meta_element_set_no": 999,
        "meta_rev_at_epoch": 25551,
        "meta_bstar": 0.00035133,
        "meta_mean_motion_dot": 1.705e-05,
        "meta_mean_motion_ddot": 0,
        "tle_line1": "1 27424U 02022A   25343.19777035  .00001705  00000+0  35133-3 0  9991",
        "tle_line2": "2 27424  98.4033 304.0194 0000953 114.0771 303.0219 14.61794992255515"
      },
      "geometry": {
        "type": "Point",
        "coordinates": [
          144.79706135726585,
          67.10464390865782
        ]
      }
    }
  ]
}